SAUDISAT 1C (SO-50)     
1 27607U 02058C   26187.10353916  .00000968  00000+0  13139-3 0  9991
2 27607  64.5520  70.4578 0074778 258.9395 100.3295 14.83086846267262
SAUDISAT 2              
1 28371U 04025F   26187.88009756  .00000214  00000+0  58976-4 0  9994
2 28371  98.5514 188.3714 0023652 234.6456 125.2531 14.56695078168617
SAUDISAT 3              
1 31118U 07012B   26187.43524959  .00000272  00000+0  52008-4 0  9998
2 31118  98.1463 137.8494 0015011 161.2361 198.9401 14.71436940 30577
PISAT                   
1 41784U 16059B   26187.55676484  .00000961  00000+0  17079-3 0  9996
2 41784  97.8185 187.1776 0029947 141.2876 219.0484 14.69019012522584
FLYING LAPTOP           
1 42831U 17042G   26187.84871091  .00003610  00000+0  28409-3 0  9999
2 42831  97.4781 342.6366 0019970  58.8580 301.4600 15.01277851489402
SALSAT                  
1 46495U 20068K   26187.57050323  .00006429  00000+0  22350-3 0  9998
2 46495  97.8859 191.8188 0008365 225.6933 134.3621 15.30088375318321
